{
  "source": {
    "provider": "Space-Track",
    "query": "class=gp orderby=EPOCH desc",
    "generatedAt": "2026-02-26T12:46:27.502464"
  },
  "fallbackEducationByType": {
    "DEBRIS": {
      "title": "Orbital Debris",
      "fact": "Even small debris can damage satellites because orbital speeds are extremely high.",
      "whyItMatters": "More debris increases collision risk and can trigger debris cascades."
    },
    "ROCKET BODY": {
      "title": "Rocket Body",
      "fact": "Spent rocket stages can remain in orbit and contribute to congestion.",
      "whyItMatters": "Large objects are harder to avoid and may fragment into debris."
    },
    "PAYLOAD": {
      "title": "Satellite / Payload",
      "fact": "Some satellites become inactive and can no longer maneuver to avoid collisions.",
      "whyItMatters": "Non-maneuverable objects increase collision probability."
    }
  },
  "objects": [
    {
      "noradId": "30320",
      "name": "FENGYUN 1C DEB",
      "type": "DEBRIS",
      "epoch": "2026-02-21T15:20:55.300416",
      "tle": {
        "line1": "1 30320U 99025AAH 26052.63952894  .00000485  00000-0  35736-3 0  9998",
        "line2": "2 30320  99.1762 117.0293 0087026 100.2802  53.0019 13.98609458973980"
      },
      "education": null
    },
    {
      "noradId": "53320",
      "name": "YAOGAN-35 03C",
      "type": "PAYLOAD",
      "epoch": "2026-02-21T15:20:55.004064",
      "tle": {
        "line1": "1 53320U 22088E   26052.63952551  .00023113  00000-0  60095-3 0  9997",
        "line2": "2 53320  34.9961 179.5178 0001532  43.8538 316.2303 15.37993227199091"
      },
      "education": null
    },
    {
      "noradId": "49441",
      "name": "STARLINK-3128",
      "type": "PAYLOAD",
      "epoch": "2026-02-21T15:20:53.303712",
      "tle": {
        "line1": "1 49441U 21104AK  26052.63950583  .00000377  00000-0  41797-4 0  9993",
        "line2": "2 49441  53.2168 281.1735 0001505  85.6418 274.4746 15.08842273236497"
      },
      "education": null
    },
    {
      "noradId": "67110",
      "name": "STARLINK-35781",
      "type": "PAYLOAD",
      "epoch": "2026-02-21T15:20:45.808512",
      "tle": {
        "line1": "1 67110U 25299J   26052.63941908  .00051593  00000-0  12324-2 0  9994",
        "line2": "2 67110  43.0002 261.1876 0001761 258.1019 101.9640 15.40739729 10647"
      },
      "education": null
    },
    {
      "noradId": "60873",
      "name": "CZ-6A DEB",
      "type": "DEBRIS",
      "epoch": "2026-02-21T15:20:43.666656",
      "tle": {
        "line1": "1 60873U 24140KC  26052.63939429  .00000977  00000-0  48567-3 0  9991",
        "line2": "2 60873  89.1162 295.9298 0071046 211.1433 148.5535 14.15046068 78506"
      },
      "education": null
    },
    {
      "noradId": "64692",
      "name": "ELECTRON KICK STAGE R/B",
      "type": "ROCKET BODY",
      "epoch": "2026-02-21T15:20:37.036320",
      "tle": {
        "line1": "1 64692U 25140B   26052.63931755  .00001960  00000-0  30850-3 0  9998",
        "line2": "2 64692  95.9873 203.4371 0013168 217.3209 142.7090 14.73140411 35077"
      },
      "education": null
    },
    {
      "noradId": "62420",
      "name": "STARLINK-11434",
      "type": "PAYLOAD",
      "epoch": "2026-02-21T15:20:34.522944",
      "tle": {
        "line1": "1 62420U 24249M   26052.63928846  .00139809  00000-0  10704-2 0  9990",
        "line2": "2 62420  42.9989 264.6376 0002546 242.5468 117.5141 15.70937149 66951"
      },
      "education": null
    },
    {
      "noradId": "27055",
      "name": "COSMOS 2384",
      "type": "PAYLOAD",
      "epoch": "2026-02-21T15:20:34.338912",
      "tle": {
        "line1": "1 27055U 01058A   26052.63928633  .00000046  00000-0  20709-3 0  9999",
        "line2": "2 27055  82.5473 307.3284 0010324 150.4534 209.7141 12.59888111110504"
      },
      "education": null
    },
    {
      "noradId": "7824",
      "name": "COSMOS 735",
      "type": "PAYLOAD",
      "epoch": "2026-02-21T15:20:20.083776",
      "tle": {
        "line1": "1 07824U 75045D   26052.63912134  .00000004  00000-0  13480-3 0  9999",
        "line2": "2 07824  74.0176 129.2447 0007014  81.7902 350.6762 12.49367737314158"
      },
      "education": null
    },
    {
      "noradId": "38658",
      "name": "CZ-4C DEB",
      "type": "DEBRIS",
      "epoch": "2026-02-21T15:20:16.181952",
      "tle": {
        "line1": "1 38658U 09072F   26052.63907618  .00000285  00000-0  97044-3 0  9995",
        "line2": "2 38658 100.5952 338.8405 0136133 339.3797 139.2658 13.05435330762841"
      },
      "education": null
    },
    {
      "noradId": "30504",
      "name": "FENGYUN 1C DEB",
      "type": "DEBRIS",
      "epoch": "2026-02-21T15:20:15.834624",
      "tle": {
        "line1": "1 30504U 99025AHS 26052.63907216  .00000987  00000-0  44977-3 0  9994",
        "line2": "2 30504  99.0157 105.2629 0111508  15.0740 137.3363 14.20738122984000"
      },
      "education": null
    },
    {
      "noradId": "11573",
      "name": "COSMOS 1140",
      "type": "PAYLOAD",
      "epoch": "2026-02-21T15:20:15.686880",
      "tle": {
        "line1": "1 11573U 79089A   26052.63907045  .00000091  00000-0  39034-4 0  9992",
        "line2": "2 11573  74.0652 278.7601 0014801  48.7148 311.5277 14.37585291428252"
      },
      "education": null
    },
    {
      "noradId": "39492",
      "name": "AIST 1",
      "type": "PAYLOAD",
      "epoch": "2026-02-21T15:20:15.226368",
      "tle": {
        "line1": "1 39492U 13078C   26052.63906512  .00001765  00000-0  15609-3 0  9996",
        "line2": "2 39492  82.4168  22.7796 0015552 309.6777  50.3072 14.95678073657979"
      },
      "education": null
    },
    {
      "noradId": "55932",
      "name": "STARLINK-5848",
      "type": "PAYLOAD",
      "epoch": "2026-02-21T15:20:14.082432",
      "tle": {
        "line1": "1 55932U 23037U   26052.63905188  .00001064  00000-0  96976-4 0  9996",
        "line2": "2 55932  69.9992 304.7352 0002745 266.4117  93.6728 14.98331207162078"
      },
      "education": null
    },
    {
      "noradId": "31431",
      "name": "FENGYUN 1C DEB",
      "type": "DEBRIS",
      "epoch": "2026-02-21T15:20:14.056512",
      "tle": {
        "line1": "1 31431U 99025BTT 26052.63905158  .00001441  00000-0  87590-3 0  9991",
        "line2": "2 31431  98.5378 301.5211 0132473 256.9295 101.7058 14.03489973955262"
      },
      "education": null
    },
    {
      "noradId": "12889",
      "name": "THOR DELTA 1 R/B",
      "type": "ROCKET BODY",
      "epoch": "2026-02-21T15:20:13.917408",
      "tle": {
        "line1": "1 12889U 81100C   26052.63904997  .00000202  00000-0  11368-3 0  9996",
        "line2": "2 12889  99.9056 302.7599 1307801 147.5830 251.5161 12.20101640967258"
      },
      "education": null
    },
    {
      "noradId": "6986",
      "name": "COSMOS 618",
      "type": "PAYLOAD",
      "epoch": "2026-02-21T15:20:08.183904",
      "tle": {
        "line1": "1 06986U 73104B   26052.63898361  .00000001  00000-0  11231-3 0  9995",
        "line2": "2 06986  74.0290 126.4107 0028088 290.4040 141.7302 12.49926565380793"
      },
      "education": null
    },
    {
      "noradId": "63293",
      "name": "OBJECT C",
      "type": "UNKNOWN",
      "epoch": "2026-02-21T15:20:04.039296",
      "tle": {
        "line1": "1 63293U 25055C   26052.63893564  .00011703  00000-0  57306-3 0  9995",
        "line2": "2 63293  97.6335 193.0358 0011727 194.8008 165.2884 15.18274676 51596"
      },
      "education": null
    },
    {
      "noradId": "61198",
      "name": "TIANQI 32",
      "type": "PAYLOAD",
      "epoch": "2026-02-21T15:20:00.116736",
      "tle": {
        "line1": "1 61198U 24170D   26052.63889024  .00000074  00000-0  13864-3 0  9990",
        "line2": "2 61198  44.8609 292.6469 0007932 253.7049 106.2909 13.99117705 68359"
      },
      "education": null
    },
    {
      "noradId": "38046",
      "name": "ZY 3",
      "type": "PAYLOAD",
      "epoch": "2026-02-21T15:19:59.172384",
      "tle": {
        "line1": "1 38046U 12001A   26052.63887931  .00266930  28126-4  87426-3 0  9994",
        "line2": "2 38046  97.1568 126.5860 0000786 231.3013 128.8190 15.90577888786144"
      },
      "education": null
    },
    {
      "noradId": "64519",
      "name": "KUIPER-00059",
      "type": "PAYLOAD",
      "epoch": "2026-02-21T15:19:58.618560",
      "tle": {
        "line1": "1 64519U 25134V   26052.63887290  .00002920  00000-0  41126-3 0  9998",
        "line2": "2 64519  51.8997 291.5603 0002102 112.9355 247.1829 14.80005339 37874"
      },
      "education": null
    },
    {
      "noradId": "47231",
      "name": "GAOFEN 14",
      "type": "PAYLOAD",
      "epoch": "2026-02-21T15:19:53.556384",
      "tle": {
        "line1": "1 47231U 20092A   26052.63881431  .00007643  00000-0  30502-3 0  9992",
        "line2": "2 47231  97.4855 122.9105 0006597 193.1391 166.9676 15.25435807290216"
      },
      "education": null
    },
    {
      "noradId": "27560",
      "name": "MOZHAYETS",
      "type": "PAYLOAD",
      "epoch": "2026-02-21T15:19:51.575232",
      "tle": {
        "line1": "1 27560U 02054B   26052.63879138  .00000314  00000-0  72663-4 0  9997",
        "line2": "2 27560  98.4542 266.9156 0038734  17.4299  54.5348 14.61664443235396"
      },
      "education": null
    },
    {
      "noradId": "46469",
      "name": "HAIYANG 2C",
      "type": "PAYLOAD",
      "epoch": "2026-02-21T15:19:45.838272",
      "tle": {
        "line1": "1 46469U 20066A   26052.63872498 -.00000144  00000-0 -57146-4 0  9993",
        "line2": "2 46469  65.9979 142.9760 0012940 251.9118 108.0541 13.83371464273515"
      },
      "education": null
    }
  ]
}